{"type": "FeatureCollection", "features": [ {"type": "Feature", "properties": {"norad_id": 34464, "name": "COSMOS 2251 DEB", "group": "cosmos-2251-debris", "lat": -29.36145809915583, "lon": 74.11370672217379, "alt_km": 487.9557394242229, "timestamp": "2025-12-10T07:43:55.173645+00:00", "meta": {"OBJECT_NAME": "COSMOS 2251 DEB", "OBJECT_ID": "1993-036TH", "EPOCH": "2025-12-09T08:16:13.821024", "MEAN_MOTION": 15.26277905, "ECCENTRICITY": 0.00167133, "INCLINATION": 73.9907, "RA_OF_ASC_NODE": 85.4834, "ARG_OF_PERICENTER": 262.1565, "MEAN_ANOMALY": 97.7738, "EPHEMERIS_TYPE": 0, "CLASSIFICATION_TYPE": "U", "NORAD_CAT_ID": 34464, "ELEMENT_SET_NO": 999, "REV_AT_EPOCH": 89788, "BSTAR": 0.003892726, "MEAN_MOTION_DOT": 0.00102738, "MEAN_MOTION_DDOT": 0}, "tle": {"line1": "1 34464U 93036TH  25343.34460441  .00102738  00000+0  38927-2 0  9996", "line2": "2 34464  73.9907  85.4834 0016713 262.1565  97.7738 15.26277905897880"}}, "geometry": {"type": "Point", "coordinates": [74.11370672217379, -29.36145809915583]}}, {"type": "Feature", "properties": {"norad_id": 34468, "name": "COSMOS 2251 DEB", "group": "cosmos-2251-debris", "lat": 18.160797762094465, "lon": -63.66259621008536, "alt_km": 748.1688011303131, "timestamp": "2025-12-10T07:43:55.173655+00:00", "meta": {"OBJECT_NAME": "COSMOS 2251 DEB", "OBJECT_ID": "1993-036TM", "EPOCH": "2025-12-09T19:22:22.703808", "MEAN_MOTION": 14.47613075, "ECCENTRICITY": 0.007635, "INCLINATION": 74.0129, "RA_OF_ASC_NODE": 122.6979, "ARG_OF_PERICENTER": 268.2218, "MEAN_ANOMALY": 91.0195, "EPHEMERIS_TYPE": 0, "CLASSIFICATION_TYPE": "U", "NORAD_CAT_ID": 34468, "ELEMENT_SET_NO": 999, "REV_AT_EPOCH": 88419, "BSTAR": 0.00062688, "MEAN_MOTION_DOT": 2.366e-05, "MEAN_MOTION_DDOT": 0}, "tle": {"line1": "1 34468U 93036TM  25343.80720722  .00002366  00000+0  62688-3 0  9990", "line2": "2 34468  74.0129 122.6979 0076350 268.2218  91.0195 14.47613075884199"}}, "geometry": {"type": "Point", "coordinates": [-63.66259621008536, 18.160797762094465]}}, {"type": "Feature", "properties": {"norad_id": 34472, "name": "COSMOS 2251 DEB", "group": "cosmos-2251-debris", "lat": 43.5532234864709, "lon": -93.62025025260843, "alt_km": 1026.4961533864944, "timestamp": "2025-12-10T07:43:55.173665+00:00", "meta": {"OBJECT_NAME": "COSMOS 2251 DEB", "OBJECT_ID": "1993-036TR", "EPOCH": "2025-12-08T18:15:08.826912", "MEAN_MOTION": 13.70322213, "ECCENTRICITY": 0.03280903, "INCLINATION": 74.0833, "RA_OF_ASC_NODE": 104.6881, "ARG_OF_PERICENTER": 236.5736, "MEAN_ANOMALY": 120.3611, "EPHEMERIS_TYPE": 0, "CLASSIFICATION_TYPE": "U", "NORAD_CAT_ID": 34472, "ELEMENT_SET_NO": 999, "REV_AT_EPOCH": 83672, "BSTAR": 0.0014639166, "MEAN_MOTION_DOT": 1.867e-05, "MEAN_MOTION_DDOT": 0}, "tle": {"line1": "1 34472U 93036TR  25342.76051883  .00001867  00000+0  14639-2 0  9991", "line2": "2 34472  74.0833 104.6881 0328090 236.5736 120.3611 13.70322213836723"}}, "geometry": {"type": "Point", "coordinates": [-93.62025025260843, 43.5532234864709]}}, {"type": "Feature", "properties": {"norad_id": 34474, "name": "COSMOS 2251 DEB", "group": "cosmos-2251-debris", "lat": -42.06132320969452, "lon": -44.526521658314316, "alt_km": 872.596989739779, "timestamp": "2025-12-10T07:43:55.173675+00:00", "meta": {"OBJECT_NAME": "COSMOS 2251 DEB", "OBJECT_ID": "1993-036TT", "EPOCH": "2025-12-09T10:18:34.765920", "MEAN_MOTION": 14.06378641, "ECCENTRICITY": 0.01980997, "INCLINATION": 74.0784, "RA_OF_ASC_NODE": 331.9568, "ARG_OF_PERICENTER": 46.6826, "MEAN_ANOMALY": 74.084, "EPHEMERIS_TYPE": 0, "CLASSIFICATION_TYPE": "U", "NORAD_CAT_ID": 34474, "ELEMENT_SET_NO": 999, "REV_AT_EPOCH": 85462, "BSTAR": 0.0026434652, "MEAN_MOTION_DOT": 5.192e-05, "MEAN_MOTION_DDOT": 0}, "tle": {"line1": "1 34474U 93036TT  25343.42956905  .00005192  00000+0  26435-2 0  9998", "line2": "2 34474  74.0784 331.9568 0198099  46.6826  74.0840 14.06378641854625"}}, "geometry": {"type": "Point", "coordinates": [-44.526521658314316, -42.06132320969452]}}, {"type": "Feature", "properties": {"norad_id": 34476, "name": "COSMOS 2251 DEB", "group": "cosmos-2251-debris", "lat": 37.14680319504993, "lon": -105.97141052404459, "alt_km": 1180.6413389535728, "timestamp": "2025-12-10T07:43:55.173685+00:00", "meta": {"OBJECT_NAME": "COSMOS 2251 DEB", "OBJECT_ID": "1993-036TV", "EPOCH": "2025-12-09T17:08:07.643040", "MEAN_MOTION": 13.8198057, "ECCENTRICITY": 0.0319873, "INCLINATION": 74.0051, "RA_OF_ASC_NODE": 87.6033, "ARG_OF_PERICENTER": 307.8272, "MEAN_ANOMALY": 49.4288, "EPHEMERIS_TYPE": 0, "CLASSIFICATION_TYPE": "U", "NORAD_CAT_ID": 34476, "ELEMENT_SET_NO": 999, "REV_AT_EPOCH": 83596, "BSTAR": 0.0047303, "MEAN_MOTION_DOT": 7.488e-05, "MEAN_MOTION_DDOT": 0}, "tle": {"line1": "1 34476U 93036TV  25343.71397735  .00007488  00000+0  47303-2 0  9999", "line2": "2 34476  74.0051  87.6033 0319873 307.8272  49.4288 13.81980570835968"}}, "geometry": {"type": "Point", "coordinates": [-105.97141052404459, 37.14680319504993]}}, {"type": "Feature", "properties": {"norad_id": 34477, "name": "COSMOS 2251 DEB", "group": "cosmos-2251-debris", "lat": 68.05934157470173, "lon": -151.39516645139318, "alt_km": 746.2986875223023, "timestamp": "2025-12-10T07:43:55.173695+00:00", "meta": {"OBJECT_NAME": "COSMOS 2251 DEB", "OBJECT_ID": "1993-036TW", "EPOCH": "2025-12-09T17:07:03.750240", "MEAN_MOTION": 14.56828153, "ECCENTRICITY": 0.0076879, "INCLINATION": 73.979, "RA_OF_ASC_NODE": 75.2683, "ARG_OF_PERICENTER": 262.9666, "MEAN_ANOMALY": 250.2604, "EPHEMERIS_TYPE": 0, "CLASSIFICATION_TYPE": "U", "NORAD_CAT_ID": 34477, "ELEMENT_SET_NO": 999, "REV_AT_EPOCH": 88581, "BSTAR": 0.0013891, "MEAN_MOTION_DOT": 6.453e-05, "MEAN_MOTION_DDOT": 0}, "tle": {"line1": "1 34477U 93036TW  25343.71323785  .00006453  00000+0  13891-2 0  9990", "line2": "2 34477  73.9790  75.2683 0076879 262.9666 250.2604 14.56828153885819"}}, "geometry": {"type": "Point", "coordinates": [-151.39516645139318, 68.05934157470173]}}, {"type": "Feature", "properties": {"norad_id": 34478, "name": "COSMOS 2251 DEB", "group": "cosmos-2251-debris", "lat": -71.39955955294361, "lon": -109.88899145856936, "alt_km": 528.4018588580911, "timestamp": "2025-12-10T07:43:55.173705+00:00", "meta": {"OBJECT_NAME": "COSMOS 2251 DEB", "OBJECT_ID": "1993-036TX", "EPOCH": "2025-12-09T03:45:23.494752", "MEAN_MOTION": 15.07546679, "ECCENTRICITY": 0.00354336, "INCLINATION": 74.0399, "RA_OF_ASC_NODE": 14.2543, "ARG_OF_PERICENTER": 236.044, "MEAN_ANOMALY": 180.3943, "EPHEMERIS_TYPE": 0, "CLASSIFICATION_TYPE": "U", "NORAD_CAT_ID": 34478, "ELEMENT_SET_NO": 999, "REV_AT_EPOCH": 88919, "BSTAR": 0.0034604726, "MEAN_MOTION_DOT": 0.00053718, "MEAN_MOTION_DDOT": 0}, "tle": {"line1": "1 34478U 93036TX  25343.15652193  .00053718  00000+0  34605-2 0  9999", "line2": "2 34478  74.0399  14.2543 0035433 236.0440 180.3943 15.07546679889199"}}, "geometry": {"type": "Point", "coordinates": [-109.88899145856936, -71.39955955294361]}}, {"type": "Feature", "properties": {"norad_id": 34481, "name": "COSMOS 2251 DEB", "group": "cosmos-2251-debris", "lat": 29.40277318395995, "lon": -131.43054632784416, "alt_km": 775.329280129974, "timestamp": "2025-12-10T07:43:55.173715+00:00", "meta": {"OBJECT_NAME": "COSMOS 2251 DEB", "OBJECT_ID": "1993-036UA", "EPOCH": "2025-12-09T06:11:03.132960", "MEAN_MOTION": 14.32530215, "ECCENTRICITY": 0.0070831, "INCLINATION": 73.9805, "RA_OF_ASC_NODE": 59.836, "ARG_OF_PERICENTER": 234.8477, "MEAN_ANOMALY": 187.628, "EPHEMERIS_TYPE": 0, "CLASSIFICATION_TYPE": "U", "NORAD_CAT_ID": 34481, "ELEMENT_SET_NO": 999, "REV_AT_EPOCH": 87399, "BSTAR": 0.0011903, "MEAN_MOTION_DOT": 3.293e-05, "MEAN_MOTION_DDOT": 0}, "tle": {"line1": "1 34481U 93036UA  25343.25767515  .00003293  00000+0  11903-2 0  9998", "line2": "2 34481  73.9805  59.8360 0070831 234.8477 187.6280 14.32530215873993"}}, "geometry": {"type": "Point", "coordinates": [-131.43054632784416, 29.40277318395995]}}, {"type": "Feature", "properties": {"norad_id": 34482, "name": "COSMOS 2251 DEB", "group": "cosmos-2251-debris", "lat": 2.431702925820607, "lon": -131.02975520149812, "alt_km": 657.3852823884017, "timestamp": "2025-12-10T07:43:55.173726+00:00", "meta": {"OBJECT_NAME": "COSMOS 2251 DEB", "OBJECT_ID": "1993-036UB", "EPOCH": "2025-12-09T02:59:15.251712", "MEAN_MOTION": 14.6905885, "ECCENTRICITY": 0.00453063, "INCLINATION": 74.0366, "RA_OF_ASC_NODE": 230.5914, "ARG_OF_PERICENTER": 291.2458, "MEAN_ANOMALY": 219.3701, "EPHEMERIS_TYPE": 0, "CLASSIFICATION_TYPE": "U", "NORAD_CAT_ID": 34482, "ELEMENT_SET_NO": 999, "REV_AT_EPOCH": 88134, "BSTAR": 0.0022791813, "MEAN_MOTION_DOT": 0.00013586, "MEAN_MOTION_DDOT": 0}, "tle": {"line1": "1 34482U 93036UB  25343.12448208  .00013586  00000+0  22792-2 0  9994", "line2": "2 34482  74.0366 230.5914 0045306 291.2458 219.3701 14.69058850881345"}}, "geometry": {"type": "Point", "coordinates": [-131.02975520149812, 2.431702925820607]}}, {"type": "Feature", "properties": {"norad_id": 34544, "name": "COSMOS 2251 DEB", "group": "cosmos-2251-debris", "lat": 20.137950932427103, "lon": 21.871093259130593, "alt_km": 984.5592523463483, "timestamp": "2025-12-10T07:43:55.173736+00:00", "meta": {"OBJECT_NAME": "COSMOS 2251 DEB", "OBJECT_ID": "1993-036UE", "EPOCH": "2025-12-08T02:32:15.563616", "MEAN_MOTION": 13.54658928, "ECCENTRICITY": 0.03844146, "INCLINATION": 73.9149, "RA_OF_ASC_NODE": 211.5315, "ARG_OF_PERICENTER": 240.8263, "MEAN_ANOMALY": 277.3195, "EPHEMERIS_TYPE": 0, "CLASSIFICATION_TYPE": "U", "NORAD_CAT_ID": 34544, "ELEMENT_SET_NO": 999, "REV_AT_EPOCH": 82819, "BSTAR": 0.00035904708, "MEAN_MOTION_DOT": 3.7e-06, "MEAN_MOTION_DDOT": 0}, "tle": {"line1": "1 34544U 93036UE  25342.10573569  .00000370  00000+0  35905-3 0  9997", "line2": "2 34544  73.9149 211.5315 0384414 240.8263 277.3195 13.54658928828195"}}, "geometry": {"type": "Point", "coordinates": [21.871093259130593, 20.137950932427103]}}]}